start=new Date('2022-10-01T00:00:00.000Z').valueOf();
sats=[{"FILE":"3587752","SITE":"AFETR","MEAN_MOTION_DOT":"0.00002339","TIME_SYSTEM":"UTC","REF_FRAME":"TEME","ARG_OF_PERICENTER":"86.9916","REV_AT_EPOCH":"7721","BSTAR":"0.00017586000000","CENTER_NAME":"EARTH","TLE_LINE1":"1 48428U 21040A   22273.44468350  .00002339  00000-0  17586-3 0  9990","OBJECT_NAME":"STARLINK-2461","EPOCH":"2022-09-30T10:40:20.654400","ELEMENT_SET_NO":"999","TLE_LINE2":"2 48428  53.0551  66.1345 0001269  86.9916 273.1218 15.06401812 77218","ECCENTRICITY":"0.00012690","MEAN_MOTION_DDOT":"0.0000000000000","OBJECT_ID":"2021-040A","PERIOD":"95.592","OBJECT_TYPE":"PAYLOAD","EPHEMERIS_TYPE":"0","MEAN_MOTION":"15.06401812","PERIAPSIS":"546.329","RCS_SIZE":"LARGE","DECAY_DATE":null,"GP_ID":"213874637","RA_OF_ASC_NODE":"66.1345","COUNTRY_CODE":"US","SEMIMAJOR_AXIS":"6925.343","APOAPSIS":"548.087","INCLINATION":"53.0551","NORAD_CAT_ID":"48428","MEAN_ANOMALY":"273.1218","CLASSIFICATION_TYPE":"U","LAUNCH_DATE":"2021-05-09","MEAN_ELEMENT_THEORY":"SGP4"},{"CENTER_NAME":"EARTH","BSTAR":"0.00029745000000","ARG_OF_PERICENTER":"75.1585","REF_FRAME":"TEME","REV_AT_EPOCH":"7767","FILE":"3587966","SITE":"AFETR","TIME_SYSTEM":"UTC","MEAN_MOTION_DOT":"0.00004153","PERIOD":"95.592","OBJECT_ID":"2021-040B","OBJECT_TYPE":"PAYLOAD","EPHEMERIS_TYPE":"0","ECCENTRICITY":"0.00014430","MEAN_MOTION_DDOT":"0.0000000000000","EPOCH":"2022-09-30T17:54:14.511456","ELEMENT_SET_NO":"999","TLE_LINE2":"2 48429  53.0572  34.7788 0001443  75.1585 284.9564 15.06406948 77679","OBJECT_NAME":"STARLINK-2749","TLE_LINE1":"1 48429U 21040B   22273.74600129  .00004153  00000-0  29745-3 0  9992","COUNTRY_CODE":"US","RA_OF_ASC_NODE":"34.7788","RCS_SIZE":"LARGE","DECAY_DATE":null,"GP_ID":"213904453","MEAN_MOTION":"15.06406948","PERIAPSIS":"546.193","MEAN_ANOMALY":"284.9564","CLASSIFICATION_TYPE":"U","LAUNCH_DATE":"2021-05-09","MEAN_ELEMENT_THEORY":"SGP4","NORAD_CAT_ID":"48429","SEMIMAJOR_AXIS":"6925.327","INCLINATION":"53.0572","APOAPSIS":"548.192"},{"RA_OF_ASC_NODE":"34.9312","COUNTRY_CODE":"US","PERIAPSIS":"546.184","MEAN_MOTION":"15.06402718","DECAY_DATE":null,"GP_ID":"213905704","RCS_SIZE":"LARGE","NORAD_CAT_ID":"48430","CLASSIFICATION_TYPE":"U","MEAN_ELEMENT_THEORY":"SGP4","LAUNCH_DATE":"2021-05-09","MEAN_ANOMALY":"296.4887","APOAPSIS":"548.227","INCLINATION":"53.0546","SEMIMAJOR_AXIS":"6925.340","BSTAR":"0.00015459000000","CENTER_NAME":"EARTH","MEAN_MOTION_DOT":"0.00002022","TIME_SYSTEM":"UTC","FILE":"3587966","SITE":"AFETR","REV_AT_EPOCH":"7767","REF_FRAME":"TEME","ARG_OF_PERICENTER":"63.6253","ECCENTRICITY":"0.00014750","MEAN_MOTION_DDOT":"0.0000000000000","EPHEMERIS_TYPE":"0","PERIOD":"95.592","OBJECT_ID":"2021-040C","OBJECT_TYPE":"PAYLOAD","TLE_LINE1":"1 48430U 21040C   22273.71189220  .00002022  00000-0  15459-3 0  9995","OBJECT_NAME":"STARLINK-2729","ELEMENT_SET_NO":"999","TLE_LINE2":"2 48430  53.0546  34.9312 0001475  63.6253 296.4887 15.06402718 77673","EPOCH":"2022-09-30T17:05:07.486080"},{"RA_OF_ASC_NODE":"29.8675","COUNTRY_CODE":"US","MEAN_MOTION":"15.06400946","PERIAPSIS":"546.161","RCS_SIZE":"LARGE","DECAY_DATE":null,"GP_ID":"213905932","NORAD_CAT_ID":"48431","MEAN_ANOMALY":"269.9353","CLASSIFICATION_TYPE":"U","LAUNCH_DATE":"2021-05-09","MEAN_ELEMENT_THEORY":"SGP4","SEMIMAJOR_AXIS":"6925.346","INCLINATION":"53.0559","APOAPSIS":"548.261","BSTAR":"0.00020614000000","CENTER_NAME":"EARTH","FILE":"3587966","SITE":"AFETR","MEAN_MOTION_DOT":"0.00002790","TIME_SYSTEM":"UTC","ARG_OF_PERICENTER":"90.1810","REF_FRAME":"TEME","REV_AT_EPOCH":"7774","ECCENTRICITY":"0.00015160","MEAN_MOTION_DDOT":"0.0000000000000","PERIOD":"95.592","OBJECT_ID":"2021-040D","OBJECT_TYPE":"PAYLOAD","EPHEMERIS_TYPE":"0","OBJECT_NAME":"STARLINK-2700","TLE_LINE1":"1 48431U 21040D   22273.72525358  .00002790  00000-0  20614-3 0  9994","EPOCH":"2022-09-30T17:24:21.909312","TLE_LINE2":"2 48431  53.0559  29.8675 0001516  90.1810 269.9353 15.06400946 77745","ELEMENT_SET_NO":"999"},{"SEMIMAJOR_AXIS":"6925.169","INCLINATION":"53.0567","APOAPSIS":"547.796","NORAD_CAT_ID":"48432","MEAN_ANOMALY":"261.3848","CLASSIFICATION_TYPE":"U","LAUNCH_DATE":"2021-05-09","MEAN_ELEMENT_THEORY":"SGP4","MEAN_MOTION":"15.06458744","PERIAPSIS":"546.271","RCS_SIZE":"LARGE","DECAY_DATE":null,"GP_ID":"213904703","RA_OF_ASC_NODE":"25.3443","COUNTRY_CODE":"US","OBJECT_NAME":"STARLINK-2680","TLE_LINE1":"1 48432U 21040E   22273.70641152 -.00009092  00000-0 -59135-3 0  9998","EPOCH":"2022-09-30T16:57:13.955328","ELEMENT_SET_NO":"999","TLE_LINE2":"2 48432  53.0567  25.3443 0001101  98.7266 261.3848 15.06458744 77809","ECCENTRICITY":"0.00011010","MEAN_MOTION_DDOT":"0.0000000000000","PERIOD":"95.588","OBJECT_ID":"2021-040E","OBJECT_TYPE":"PAYLOAD","EPHEMERIS_TYPE":"0","FILE":"3587966","SITE":"AFETR","MEAN_MOTION_DOT":"-0.00009092","TIME_SYSTEM":"UTC","ARG_OF_PERICENTER":"98.7266","REF_FRAME":"TEME","REV_AT_EPOCH":"7780","BSTAR":"-0.00059135000000","CENTER_NAME":"EARTH"},{"DECAY_DATE":null,"GP_ID":"213904953","RCS_SIZE":"LARGE","PERIAPSIS":"546.157","MEAN_MOTION":"15.06408355","COUNTRY_CODE":"US","RA_OF_ASC_NODE":"30.1805","INCLINATION":"53.0562","APOAPSIS":"548.218","SEMIMAJOR_AXIS":"6925.323","CLASSIFICATION_TYPE":"U","LAUNCH_DATE":"2021-05-09","MEAN_ELEMENT_THEORY":"SGP4","MEAN_ANOMALY":"280.0391","NORAD_CAT_ID":"48433","REV_AT_EPOCH":"7773","ARG_OF_PERICENTER":"80.0766","REF_FRAME":"TEME","TIME_SYSTEM":"UTC","MEAN_MOTION_DOT":"0.00002448","FILE":"3587966","SITE":"AFETR","CENTER_NAME":"EARTH","BSTAR":"0.00018312000000","ELEMENT_SET_NO":"999","TLE_LINE2":"2 48433  53.0562  30.1805 0001488  80.0766 280.0391 15.06408355 77734","EPOCH":"2022-09-30T17:15:09.684576","OBJECT_NAME":"STARLINK-2699","TLE_LINE1":"1 48433U 21040F   22273.71886209  .00002448  00000-0  18312-3 0  9992","EPHEMERIS_TYPE":"0","PERIOD":"95.592","OBJECT_ID":"2021-040F","OBJECT_TYPE":"PAYLOAD","ECCENTRICITY":"0.00014880","MEAN_MOTION_DDOT":"0.0000000000000"},{"ARG_OF_PERICENTER":"95.0848","REF_FRAME":"TEME","REV_AT_EPOCH":"7768","SITE":"AFETR","FILE":"3587966","MEAN_MOTION_DOT":"0.00008104","TIME_SYSTEM":"UTC","CENTER_NAME":"EARTH","BSTAR":"0.00056205000000","EPOCH":"2022-09-30T19:35:11.489280","ELEMENT_SET_NO":"999","TLE_LINE2":"2 48434  53.0560  34.9728 0001064  95.0848 265.0263 15.06418989 77685","TLE_LINE1":"1 48434U 21040G   22273.81610520  .00008104  00000-0  56205-3 0  9993","OBJECT_NAME":"STARLINK-2692","OBJECT_TYPE":"PAYLOAD","OBJECT_ID":"2021-040G","PERIOD":"95.591","EPHEMERIS_TYPE":"0","MEAN_MOTION_DDOT":"0.0000000000000","ECCENTRICITY":"0.00010640","RCS_SIZE":"LARGE","GP_ID":"213905205","DECAY_DATE":null,"MEAN_MOTION":"15.06418989","PERIAPSIS":"546.419","COUNTRY_CODE":"US","RA_OF_ASC_NODE":"34.9728","SEMIMAJOR_AXIS":"6925.290","INCLINATION":"53.0560","APOAPSIS":"547.892","MEAN_ANOMALY":"265.0263","MEAN_ELEMENT_THEORY":"SGP4","LAUNCH_DATE":"2021-05-09","CLASSIFICATION_TYPE":"U","NORAD_CAT_ID":"48434"},{"PERIOD":"95.592","OBJECT_ID":"2021-040H","OBJECT_TYPE":"PAYLOAD","EPHEMERIS_TYPE":"0","ECCENTRICITY":"0.00012820","MEAN_MOTION_DDOT":"0.0000000000000","EPOCH":"2022-09-30T18:08:51.545760","TLE_LINE2":"2 48435  53.0579  44.7430 0001282  70.5361 289.5766 15.06399769 77532","ELEMENT_SET_NO":"999","TLE_LINE1":"1 48435U 21040H   22273.75615215  .00003979  00000-0  28584-3 0  9997","OBJECT_NAME":"STARLINK-2633","CENTER_NAME":"EARTH","BSTAR":"0.00028584000000","ARG_OF_PERICENTER":"70.5361","REF_FRAME":"TEME","REV_AT_EPOCH":"7753","FILE":"3587966","SITE":"AFETR","MEAN_MOTION_DOT":"0.00003979","TIME_SYSTEM":"UTC","MEAN_ANOMALY":"289.5766","CLASSIFICATION_TYPE":"U","LAUNCH_DATE":"2021-05-09","MEAN_ELEMENT_THEORY":"SGP4","NORAD_CAT_ID":"48435","SEMIMAJOR_AXIS":"6925.349","INCLINATION":"53.0579","APOAPSIS":"548.102","COUNTRY_CODE":"US","RA_OF_ASC_NODE":"44.7430","RCS_SIZE":"LARGE","DECAY_DATE":null,"GP_ID":"213905433","MEAN_MOTION":"15.06399769","PERIAPSIS":"546.326"},{"ECCENTRICITY":"0.00010810","MEAN_MOTION_DDOT":"0.0000000000000","EPHEMERIS_TYPE":"0","PERIOD":"95.591","OBJECT_ID":"2021-040J","OBJECT_TYPE":"PAYLOAD","TLE_LINE1":"1 48436U 21040J   22273.81187711  .00002659  00000-0  19719-3 0  9994","OBJECT_NAME":"STARLINK-2639","TLE_LINE2":"2 48436  53.0571  59.4800 0001081 100.9264 259.1847 15.06420424 77330","ELEMENT_SET_NO":"999","EPOCH":"2022-09-30T19:29:06.182304","BSTAR":"0.00019719000000","CENTER_NAME":"EARTH","MEAN_MOTION_DOT":"0.00002659","TIME_SYSTEM":"UTC","FILE":"3587966","SITE":"AFETR","REV_AT_EPOCH":"7733","ARG_OF_PERICENTER":"100.9264","REF_FRAME":"TEME","NORAD_CAT_ID":"48436","CLASSIFICATION_TYPE":"U","LAUNCH_DATE":"2021-05-09","MEAN_ELEMENT_THEORY":"SGP4","MEAN_ANOMALY":"259.1847","INCLINATION":"53.0571","APOAPSIS":"547.900","SEMIMAJOR_AXIS":"6925.286","RA_OF_ASC_NODE":"59.4800","COUNTRY_CODE":"US","PERIAPSIS":"546.402","MEAN_MOTION":"15.06420424","DECAY_DATE":null,"GP_ID":"213904204","RCS_SIZE":"LARGE"},{"COUNTRY_CODE":"US","RA_OF_ASC_NODE":"69.5500","DECAY_DATE":null,"GP_ID":"213904454","RCS_SIZE":"LARGE","PERIAPSIS":"546.229","MEAN_MOTION":"15.06417391","CLASSIFICATION_TYPE":"U","MEAN_ELEMENT_THEORY":"SGP4","LAUNCH_DATE":"2021-05-09","MEAN_ANOMALY":"290.3332","NORAD_CAT_ID":"48437","APOAPSIS":"548.091","INCLINATION":"53.0561","SEMIMAJOR_AXIS":"6925.295","CENTER_NAME":"EARTH","BSTAR":"-0.00009106500000","REV_AT_EPOCH":"7719","REF_FRAME":"TEME","ARG_OF_PERICENTER":"69.7801","MEAN_MOTION_DOT":"-0.00001638","TIME_SYSTEM":"UTC","FILE":"3587966","SITE":"AFETR","EPHEMERIS_TYPE":"0","PERIOD":"95.591","OBJECT_ID":"2021-040K","OBJECT_TYPE":"PAYLOAD","ECCENTRICITY":"0.00013440","MEAN_MOTION_DDOT":"0.0000000000000","TLE_LINE2":"2 48437  53.0561  69.5500 0001344  69.7801 290.3332 15.06417391 77199","ELEMENT_SET_NO":"999","EPOCH":"2022-09-30T19:06:33.657696","OBJECT_NAME":"STARLINK-2642","TLE_LINE1":"1 48437U 21040K   22273.79622289 -.00001638  00000-0 -91065-4 0  9999"}];
